      2.10          N: GNSS NAV DATA                        RINEX VERSION / TYPE
fic2rin                                 12/10/2018 00:18:57 PGM / RUN BY / DATE
                                                            END OF HEADER
27 18 12  9 10  0  0.0-2.965936437249e-05-5.684341886081e-12 0.000000000000e+00
    5.700000000000e+01-6.068750000000e+01 4.375896559370e-09-1.629266681314e+00
   -3.242865204811e-06 6.264358875342e-03 1.247972249985e-06 5.153699745178e+03
    3.600000000000e+04 1.490116119385e-08-1.026710715240e+00-9.126961231232e-08
    9.781239405939e-01 3.631250000000e+02 4.305762441660e-01-8.231057142283e-09
   -2.892977646988e-11 1.000000000000e+00 2.031000000000e+03 0.000000000000e+00
    2.400000000000e+00 0.000000000000e+00 1.862645149231e-09 5.700000000000e+01
    2.880600000000e+04 4.000000000000e+00
24 18 12  9 10  0  0.0-5.929823964834e-05-5.684341886081e-13 0.000000000000e+00
    7.400000000000e+01 4.150000000000e+01 4.576262048254e-09 2.831825296227e+00
    2.149492502213e-06 7.842005579732e-03 1.064687967300e-05 5.153746223450e+03
    3.600000000000e+04-4.470348358154e-08 3.117988196815e+00-5.401670932770e-08
    9.403945021314e-01 1.631875000000e+02 5.603368583593e-01-7.857112994580e-09
   -3.760870941085e-10 1.000000000000e+00 2.031000000000e+03 0.000000000000e+00
    3.400000000000e+00 0.000000000000e+00 2.793967723846e-09 7.400000000000e+01
    2.880600000000e+04 4.000000000000e+00
25 18 12  9 10  0  0.0-6.886431947351e-04-5.570655048359e-12 0.000000000000e+00
    8.600000000000e+01 1.177500000000e+02 4.202317900551e-09 8.819378858758e-01
    6.005167961121e-06 7.715255836956e-03 4.792585968971e-06 5.153557546616e+03
    3.600000000000e+04-7.450580596924e-08-2.067879672220e+00 6.332993507385e-08
    9.721443448683e-01 2.926250000000e+02 8.485156600602e-01-8.145696443810e-09
    1.871506527187e-10 1.000000000000e+00 2.031000000000e+03 0.000000000000e+00
    3.400000000000e+00 0.000000000000e+00 5.587935447693e-09 8.600000000000e+01
    2.880600000000e+04 4.000000000000e+00
13 18 12  9 10  0  0.0-8.212495595217e-05 1.136868377216e-12 0.000000000000e+00
    4.300000000000e+01-1.803125000000e+01 4.557332688342e-09-2.777588750978e+00
   -8.568167686462e-07 3.687927382998e-03 6.187707185745e-06 5.153658987045e+03
    3.600000000000e+04 2.980232238770e-08 2.239131510461e+00 1.862645149231e-09
    9.679173454826e-01 2.648125000000e+02 1.401652593005e+00-7.885328455581e-09
   -4.000166622996e-10 1.000000000000e+00 2.031000000000e+03 0.000000000000e+00
    2.400000000000e+00 0.000000000000e+00-1.117587089539e-08 4.300000000000e+01
    2.880600000000e+04 4.000000000000e+00
15 18 12  9 10  0  0.0-3.369175828993e-04 1.364242052659e-12 0.000000000000e+00
    5.700000000000e+01-1.371875000000e+01 5.609162215549e-09-2.538123692045e+00
   -7.618218660355e-07 1.112117699813e-02 5.038455128670e-06 5.153597141266e+03
    3.600000000000e+04 1.229345798492e-07 2.028757421638e+00-1.527369022369e-07
    9.276873309067e-01 2.649375000000e+02 7.443520029173e-01-8.400349908292e-09
   -1.682212928064e-10 1.000000000000e+00 2.031000000000e+03 0.000000000000e+00
    2.400000000000e+00 0.000000000000e+00-1.117587089539e-08 5.700000000000e+01
    2.880600000000e+04 4.000000000000e+00
17 18 12  9 10  0  0.0-2.097850665450e-05 5.002220859751e-12 0.000000000000e+00
    9.600000000000e+01-5.753125000000e+01 4.258748822554e-09-1.645853508359e+00
   -2.648681402206e-06 1.295490283519e-02 1.380220055580e-06 5.153655008316e+03
    3.600000000000e+04 2.030283212662e-07-9.715174361951e-01 2.793967723846e-07
    9.835670418352e-01 3.621562500000e+02-1.752175888382e+00-8.060692903071e-09
   -8.750364487804e-11 1.000000000000e+00 2.031000000000e+03 0.000000000000e+00
    3.400000000000e+00 0.000000000000e+00-1.117587089539e-08 9.600000000000e+01
    2.880600000000e+04 4.000000000000e+00
21 18 12  9 10  0  0.0-2.904543653131e-04 6.707523425575e-12 0.000000000000e+00
    6.500000000000e+01-1.056875000000e+02 4.893775273955e-09 7.199317337836e-01
   -5.681067705154e-06 2.453566831537e-02 9.823590517044e-06 5.153578863144e+03
    3.600000000000e+04-3.408640623093e-07-3.074220524482e-02-1.844018697739e-07
    9.467326034873e-01 1.939375000000e+02-1.506530607675e+00-8.552499103059e-09
   -4.000166622996e-11 1.000000000000e+00 2.031000000000e+03 0.000000000000e+00
    2.400000000000e+00 0.000000000000e+00-9.778887033463e-09 6.500000000000e+01
    2.880600000000e+04 4.000000000000e+00
12 18 12  9 10  0  0.0 2.858918160200e-04-2.955857780762e-12 0.000000000000e+00
    5.400000000000e+01 1.070625000000e+02 3.933020968967e-09 1.180845257710e+00
    5.476176738739e-06 7.146561052650e-03 4.529953002930e-06 5.153738746643e+03
    3.600000000000e+04-1.136213541031e-07-2.005641279604e+00 6.332993507385e-08
    9.845808821000e-01 3.030937500000e+02 1.020804543372e+00-8.036049019412e-09
    2.417957860507e-10 1.000000000000e+00 2.031000000000e+03 0.000000000000e+00
    2.400000000000e+00 0.000000000000e+00-1.257285475731e-08 5.400000000000e+01
    2.880600000000e+04 4.000000000000e+00
10 18 12  9 10  0  0.0 1.540137454867e-04-5.229594535194e-12 0.000000000000e+00
    6.300000000000e+01 1.196875000000e+01 4.678766317969e-09 4.924645341531e-01
    6.109476089478e-07 4.090500180610e-03 7.957220077515e-06 5.153660163879e+03
    3.600000000000e+04 5.587935447693e-09 1.067856718416e+00 3.539025783539e-08
    9.617147308216e-01 2.238437500000e+02-2.812981623999e+00-8.021405552310e-09
    4.218032840856e-10 1.000000000000e+00 2.031000000000e+03 0.000000000000e+00
    2.400000000000e+00 0.000000000000e+00 1.862645149231e-09 6.300000000000e+01
    2.880600000000e+04 4.000000000000e+00
26 18 12  9 10  0  0.0 6.264960393310e-05 1.091393642128e-11 0.000000000000e+00
    5.500000000000e+01 1.243125000000e+02 4.567333104900e-09 2.477104309566e-01
    6.465241312981e-06 3.339545801282e-03 4.490837454796e-06 5.153768211365e+03
    3.600000000000e+04 9.313225746155e-08-2.093370392159e+00-1.490116119385e-08
    9.535716986945e-01 2.878125000000e+02 5.419436493283e-02-8.285345117881e-09
    2.803688213439e-10 1.000000000000e+00 2.031000000000e+03 0.000000000000e+00
    2.400000000000e+00 0.000000000000e+00 7.450580596924e-09 5.500000000000e+01
    2.880600000000e+04 4.000000000000e+00
29 18 12  9 10  0  0.0 3.192308358848e-04-8.071765478235e-12 0.000000000000e+00
    4.600000000000e+01-7.218750000000e+01 4.233390623426e-09-1.035848256632e+00
   -3.697350621223e-06 6.309519521892e-04 2.043321728706e-06 5.153592048645e+03
    3.600000000000e+04 5.587935447693e-09-9.606341785666e-01-1.676380634308e-08
    9.849506668288e-01 3.569062500000e+02 1.620599861609e+00-8.113195089998e-09
   -1.150047904111e-10 1.000000000000e+00 2.031000000000e+03 0.000000000000e+00
    2.400000000000e+00 0.000000000000e+00-1.024454832077e-08 4.600000000000e+01
    2.880600000000e+04 4.000000000000e+00
18 18 12  9 10  0  0.0 3.608874976635e-06 3.979039320257e-12 0.000000000000e+00
    1.800000000000e+01-1.331250000000e+02 4.424470011221e-09 2.245848422750e+00
   -6.953254342079e-06 1.495214819442e-02 9.378418326378e-06 5.153619720459e+03
    3.600000000000e+04 1.583248376846e-07-2.254743116815e-02-2.346932888031e-07
    9.524463782204e-01 1.906250000000e+02 1.365290431427e+00-7.724607475193e-09
   -2.857261873569e-12 1.000000000000e+00 2.031000000000e+03 0.000000000000e+00
    2.400000000000e+00 6.300000000000e+01-6.519258022308e-09 1.800000000000e+01
    2.880600000000e+04 4.000000000000e+00
25 18 12  9  9 59 44.0-6.886427290738e-04-5.570655048359e-12 0.000000000000e+00
    2.000000000000e+00 1.177500000000e+02 4.202317900551e-09 8.796029340328e-01
    6.005167961121e-06 7.715256884694e-03 4.792585968971e-06 5.153557544708e+03
    3.598400000000e+04-7.450580596924e-08-2.067879531780e+00 6.332993507385e-08
    9.721443360908e-01 2.926250000000e+02 8.485167309163e-01-8.145696443810e-09
    1.871506527187e-10 1.000000000000e+00 2.031000000000e+03 0.000000000000e+00
    2.400000000000e+00 0.000000000000e+00 5.587935447693e-09 2.000000000000e+00
    2.910600000000e+04 4.000000000000e+00
 1 18 12  9  9 59 44.0-1.262244768441e-04-5.798028723802e-12 0.000000000000e+00
    3.000000000000e+00-1.200937500000e+02 3.957664852627e-09 2.455412392891e+00
   -6.193295121193e-06 8.192539680749e-03 9.799376130104e-06 5.153669836044e+03
    3.598400000000e+04-6.519258022308e-08 2.887496732972e-02-1.341104507446e-07
    9.739818372701e-01 1.972500000000e+02 6.951686502789e-01-7.576387015502e-09
    6.000249934494e-11 1.000000000000e+00 2.031000000000e+03 0.000000000000e+00
    2.400000000000e+00 0.000000000000e+00 5.587935447693e-09 3.000000000000e+00
    3.318600000000e+04 4.000000000000e+00
 1 18 12  9 11 59 44.0-1.262659206986e-04-5.798028723802e-12 0.000000000000e+00
    4.000000000000e+00-1.172812500000e+02 3.957307694893e-09-2.777515016981e+00
   -6.156042218208e-06 8.192683686502e-03 1.020543277264e-05 5.153669380188e+03
    4.318400000000e+04 1.862645149231e-09 2.882027906316e-02-1.732259988785e-07
    9.739822732197e-01 1.884062500000e+02 6.950910044389e-01-7.595316375414e-09
    8.643217167545e-11 1.000000000000e+00 2.031000000000e+03 0.000000000000e+00
    2.400000000000e+00 0.000000000000e+00 5.587935447693e-09 4.000000000000e+00
    3.600600000000e+04 4.000000000000e+00
 3 18 12  9 12  0  0.0 1.680352725089e-04 3.296918293927e-12 0.000000000000e+00
    1.100000000000e+01 9.625000000000e+00 4.605906140193e-09 2.397768247689e+00
    4.470348358154e-07 1.861264579929e-03 8.594244718552e-06 5.153619869232e+03
    4.320000000000e+04-4.656612873077e-08 1.071132342676e+00 1.490116119385e-08
    9.616614059947e-01 2.121562500000e+02 7.083838446762e-01-7.853541417238e-09
    5.335936548889e-10 1.000000000000e+00 2.031000000000e+03 0.000000000000e+00
    2.400000000000e+00 0.000000000000e+00 2.328306436539e-09 1.100000000000e+01
    3.600600000000e+04 4.000000000000e+00
